ASRTU-1 (AO-123)        
1 61781U 24199AY  25010.55922673  .00011925  00000+0  48178-3 0  9993
2 61781  97.3780 240.3150 0017896  14.1452 346.0283 15.24758348 53991
TUSUR GO (RS78S)        
1 61782U 24199AZ  25010.59316842  .00024294  00000+0  92978-3 0  9993
2 61782  97.3771 240.4185 0018621  12.1781 347.9904 15.26394987 54001
SAMSAT-IONOSPHERE (RS7*)
1 61784U 24199BB  25010.60009305  .00020044  00000+0  77720-3 0  9997
2 61784  97.3774 240.4092 0018382  12.8441 347.3262 15.26004673 57157
RTU MIREA 1 (RS51S)     
1 61785U 24199BC  25010.59817776  .00020914  00000+0  80853-3 0  9992
2 61785  97.3773 240.4120 0018255  12.3756 347.7927 15.26096408 54002
