[{"OBJECT_NAME":"ASRTU-1 (AO-123)","OBJECT_ID":"2024-199AY","EPOCH":"2025-01-10T13:25:17.189472","MEAN_MOTION":15.24758348,"ECCENTRICITY":0.0017896,"INCLINATION":97.378,"RA_OF_ASC_NODE":240.315,"ARG_OF_PERICENTER":14.1452,"MEAN_ANOMALY":346.0283,"EPHEMERIS_TYPE":0,"CLASSIFICATION_TYPE":"U","NORAD_CAT_ID":61781,"ELEMENT_SET_NO":999,"REV_AT_EPOCH":5399,"BSTAR":0.00048178,"MEAN_MOTION_DOT":0.00011925,"MEAN_MOTION_DDOT":0},{"OBJECT_NAME":"TUSUR GO (RS78S)","OBJECT_ID":"2024-199AZ","EPOCH":"2025-01-10T14:14:09.751488","MEAN_MOTION":15.26394987,"ECCENTRICITY":0.0018621,"INCLINATION":97.3771,"RA_OF_ASC_NODE":240.4185,"ARG_OF_PERICENTER":12.1781,"MEAN_ANOMALY":347.9904,"EPHEMERIS_TYPE":0,"CLASSIFICATION_TYPE":"U","NORAD_CAT_ID":61782,"ELEMENT_SET_NO":999,"REV_AT_EPOCH":5400,"BSTAR":0.00092978,"MEAN_MOTION_DOT":0.00024294,"MEAN_MOTION_DDOT":0},{"OBJECT_NAME":"SAMSAT-IONOSPHERE (RS75S)","OBJECT_ID":"2024-199BB","EPOCH":"2025-01-10T14:24:08.039520","MEAN_MOTION":15.26004673,"ECCENTRICITY":0.0018382,"INCLINATION":97.3774,"RA_OF_ASC_NODE":240.4092,"ARG_OF_PERICENTER":12.8441,"MEAN_ANOMALY":347.3262,"EPHEMERIS_TYPE":0,"CLASSIFICATION_TYPE":"U","NORAD_CAT_ID":61784,"ELEMENT_SET_NO":999,"REV_AT_EPOCH":5715,"BSTAR":0.0007772,"MEAN_MOTION_DOT":0.00020044,"MEAN_MOTION_DDOT":0},{"OBJECT_NAME":"RTU MIREA 1 (RS51S)","OBJECT_ID":"2024-199BC","EPOCH":"2025-01-10T14:21:22.558464","MEAN_MOTION":15.26096408,"ECCENTRICITY":0.0018255,"INCLINATION":97.3773,"RA_OF_ASC_NODE":240.412,"ARG_OF_PERICENTER":12.3756,"MEAN_ANOMALY":347.7927,"EPHEMERIS_TYPE":0,"CLASSIFICATION_TYPE":"U","NORAD_CAT_ID":61785,"ELEMENT_SET_NO":999,"REV_AT_EPOCH":5400,"BSTAR":0.00080853,"MEAN_MOTION_DOT":0.00020914,"MEAN_MOTION_DDOT":0}]
